{"type": "FeatureCollection", "features": [ {"type": "Feature", "properties": {"norad_id": 34400, "name": "COSMOS 2251 DEB", "group": "cosmos-2251-debris", "lat": -50.705386507895625, "lon": 6.677728361233755, "alt_km": 413.39099034660194, "timestamp": "2025-12-10T23:33:13.212276+00:00", "meta": {"OBJECT_NAME": "COSMOS 2251 DEB", "OBJECT_ID": "1993-036QR", "EPOCH": "2025-12-10T12:57:22.466304", "MEAN_MOTION": 15.52100983, "ECCENTRICITY": 0.00057114, "INCLINATION": 73.966, "RA_OF_ASC_NODE": 28.2287, "ARG_OF_PERICENTER": 269.2815, "MEAN_ANOMALY": 90.7744, "EPHEMERIS_TYPE": 0, "CLASSIFICATION_TYPE": "U", "NORAD_CAT_ID": 34400, "ELEMENT_SET_NO": 999, "REV_AT_EPOCH": 89940, "BSTAR": 0.0046527438, "MEAN_MOTION_DOT": 0.00291876, "MEAN_MOTION_DDOT": 0}, "tle": {"line1": "1 34400U 93036QR  25344.53984336  .00291876  00000+0  46527-2 0  9999", "line2": "2 34400  73.9660  28.2287 0005711 269.2815  90.7744 15.52100983899405"}}, "geometry": {"type": "Point", "coordinates": [6.677728361233755, -50.705386507895625]}}, {"type": "Feature", "properties": {"norad_id": 34409, "name": "COSMOS 2251 DEB", "group": "cosmos-2251-debris", "lat": 73.42759393672573, "lon": 56.41224561316794, "alt_km": 672.1098037210604, "timestamp": "2025-12-10T23:33:13.212285+00:00", "meta": {"OBJECT_NAME": "COSMOS 2251 DEB", "OBJECT_ID": "1993-036RA", "EPOCH": "2025-12-10T15:42:02.401344", "MEAN_MOTION": 14.58019012, "ECCENTRICITY": 0.00797498, "INCLINATION": 74.0642, "RA_OF_ASC_NODE": 310.7983, "ARG_OF_PERICENTER": 25.6783, "MEAN_ANOMALY": 151.2638, "EPHEMERIS_TYPE": 0, "CLASSIFICATION_TYPE": "U", "NORAD_CAT_ID": 34409, "ELEMENT_SET_NO": 999, "REV_AT_EPOCH": 89162, "BSTAR": 0.00043949298, "MEAN_MOTION_DOT": 2.08e-05, "MEAN_MOTION_DDOT": 0}, "tle": {"line1": "1 34409U 93036RA  25344.65419446  .00002080  00000+0  43949-3 0  9999", "line2": "2 34409  74.0642 310.7983 0079749  25.6783 151.2638 14.58019012891626"}}, "geometry": {"type": "Point", "coordinates": [56.41224561316794, 73.42759393672573]}}, {"type": "Feature", "properties": {"norad_id": 34410, "name": "COSMOS 2251 DEB", "group": "cosmos-2251-debris", "lat": 66.14966786720949, "lon": 44.17003280507795, "alt_km": 488.6373862250857, "timestamp": "2025-12-10T23:33:13.212295+00:00", "meta": {"OBJECT_NAME": "COSMOS 2251 DEB", "OBJECT_ID": "1993-036RB", "EPOCH": "2025-12-09T18:45:14.908320", "MEAN_MOTION": 15.18456802, "ECCENTRICITY": 0.00211208, "INCLINATION": 73.7385, "RA_OF_ASC_NODE": 268.0424, "ARG_OF_PERICENTER": 109.8067, "MEAN_ANOMALY": 280.6185, "EPHEMERIS_TYPE": 0, "CLASSIFICATION_TYPE": "U", "NORAD_CAT_ID": 34410, "ELEMENT_SET_NO": 999, "REV_AT_EPOCH": 89729, "BSTAR": 0.0034496141, "MEAN_MOTION_DOT": 0.00072173, "MEAN_MOTION_DDOT": 0}, "tle": {"line1": "1 34410U 93036RB  25343.78142255  .00072173  00000+0  34496-2 0  9991", "line2": "2 34410  73.7385 268.0424 0021120 109.8067 280.6185 15.18456802897295"}}, "geometry": {"type": "Point", "coordinates": [44.17003280507795, 66.14966786720949]}}, {"type": "Feature", "properties": {"norad_id": 34412, "name": "COSMOS 2251 DEB", "group": "cosmos-2251-debris", "lat": 10.155008093082078, "lon": -29.127297522330792, "alt_km": 654.1828449639715, "timestamp": "2025-12-10T23:33:13.212304+00:00", "meta": {"OBJECT_NAME": "COSMOS 2251 DEB", "OBJECT_ID": "1993-036RD", "EPOCH": "2025-12-10T08:34:24.760128", "MEAN_MOTION": 14.47089283, "ECCENTRICITY": 0.01871146, "INCLINATION": 73.9488, "RA_OF_ASC_NODE": 329.0899, "ARG_OF_PERICENTER": 64.7312, "MEAN_ANOMALY": 297.3105, "EPHEMERIS_TYPE": 0, "CLASSIFICATION_TYPE": "U", "NORAD_CAT_ID": 34412, "ELEMENT_SET_NO": 999, "REV_AT_EPOCH": 87616, "BSTAR": 0.0017631553, "MEAN_MOTION_DOT": 7.982e-05, "MEAN_MOTION_DDOT": 0}, "tle": {"line1": "1 34412U 93036RD  25344.35723102  .00007982  00000+0  17632-2 0  9992", "line2": "2 34412  73.9488 329.0899 0187114  64.7312 297.3105 14.47089283876161"}}, "geometry": {"type": "Point", "coordinates": [-29.127297522330792, 10.155008093082078]}}, {"type": "Feature", "properties": {"norad_id": 34413, "name": "COSMOS 2251 DEB", "group": "cosmos-2251-debris", "lat": -69.64099255837947, "lon": 138.57275271579007, "alt_km": 798.4287106143875, "timestamp": "2025-12-10T23:33:13.212313+00:00", "meta": {"OBJECT_NAME": "COSMOS 2251 DEB", "OBJECT_ID": "1993-036RE", "EPOCH": "2025-12-10T13:06:02.518272", "MEAN_MOTION": 14.29071076, "ECCENTRICITY": 0.00908666, "INCLINATION": 74.0312, "RA_OF_ASC_NODE": 268.8625, "ARG_OF_PERICENTER": 345.6881, "MEAN_ANOMALY": 192.7239, "EPHEMERIS_TYPE": 0, "CLASSIFICATION_TYPE": "U", "NORAD_CAT_ID": 34413, "ELEMENT_SET_NO": 999, "REV_AT_EPOCH": 87099, "BSTAR": 0.0026006154, "MEAN_MOTION_DOT": 6.868e-05, "MEAN_MOTION_DDOT": 0}, "tle": {"line1": "1 34413U 93036RE  25344.54586248  .00006868  00000+0  26006-2 0  9999", "line2": "2 34413  74.0312 268.8625 0090866 345.6881 192.7239 14.29071076870998"}}, "geometry": {"type": "Point", "coordinates": [138.57275271579007, -69.64099255837947]}}, {"type": "Feature", "properties": {"norad_id": 34420, "name": "COSMOS 2251 DEB", "group": "cosmos-2251-debris", "lat": 69.96647063900066, "lon": -124.3770885218908, "alt_km": 703.7873499074794, "timestamp": "2025-12-10T23:33:13.212322+00:00", "meta": {"OBJECT_NAME": "COSMOS 2251 DEB", "OBJECT_ID": "1993-036RM", "EPOCH": "2025-12-10T14:59:42.199872", "MEAN_MOTION": 14.6828771, "ECCENTRICITY": 0.01067232, "INCLINATION": 74.0335, "RA_OF_ASC_NODE": 108.0499, "ARG_OF_PERICENTER": 229.6762, "MEAN_ANOMALY": 149.3385, "EPHEMERIS_TYPE": 0, "CLASSIFICATION_TYPE": "U", "NORAD_CAT_ID": 34420, "ELEMENT_SET_NO": 999, "REV_AT_EPOCH": 89739, "BSTAR": 0.00041764282, "MEAN_MOTION_DOT": 2.592e-05, "MEAN_MOTION_DDOT": 0}, "tle": {"line1": "1 34420U 93036RM  25344.62479398  .00002592  00000+0  41764-3 0  9992", "line2": "2 34420  74.0335 108.0499 0106723 229.6762 149.3385 14.68287710897394"}}, "geometry": {"type": "Point", "coordinates": [-124.3770885218908, 69.96647063900066]}}, {"type": "Feature", "properties": {"norad_id": 34425, "name": "COSMOS 2251 DEB", "group": "cosmos-2251-debris", "lat": -47.34194514311116, "lon": -103.99390411517179, "alt_km": 680.3320430778549, "timestamp": "2025-12-10T23:33:13.212332+00:00", "meta": {"OBJECT_NAME": "COSMOS 2251 DEB", "OBJECT_ID": "1993-036RS", "EPOCH": "2025-12-10T14:17:45.425760", "MEAN_MOTION": 14.62109192, "ECCENTRICITY": 0.00249425, "INCLINATION": 74.02, "RA_OF_ASC_NODE": 58.6258, "ARG_OF_PERICENTER": 185.6919, "MEAN_ANOMALY": 174.3968, "EPHEMERIS_TYPE": 0, "CLASSIFICATION_TYPE": "U", "NORAD_CAT_ID": 34425, "ELEMENT_SET_NO": 999, "REV_AT_EPOCH": 88709, "BSTAR": 0.00094392883, "MEAN_MOTION_DOT": 4.738e-05, "MEAN_MOTION_DDOT": 0}, "tle": {"line1": "1 34425U 93036RS  25344.59566465  .00004738  00000+0  94393-3 0  9995", "line2": "2 34425  74.0200  58.6258 0024942 185.6919 174.3968 14.62109192887092"}}, "geometry": {"type": "Point", "coordinates": [-103.99390411517179, -47.34194514311116]}}, {"type": "Feature", "properties": {"norad_id": 34429, "name": "COSMOS 2251 DEB", "group": "cosmos-2251-debris", "lat": 32.13690977062867, "lon": -18.570136557336394, "alt_km": 445.407660316705, "timestamp": "2025-12-10T23:33:13.212341+00:00", "meta": {"OBJECT_NAME": "COSMOS 2251 DEB", "OBJECT_ID": "1993-036RW", "EPOCH": "2025-12-10T12:08:01.998816", "MEAN_MOTION": 15.40292779, "ECCENTRICITY": 0.00067875, "INCLINATION": 73.9712, "RA_OF_ASC_NODE": 172.8672, "ARG_OF_PERICENTER": 16.6969, "MEAN_ANOMALY": 12.0165, "EPHEMERIS_TYPE": 0, "CLASSIFICATION_TYPE": "U", "NORAD_CAT_ID": 34429, "ELEMENT_SET_NO": 999, "REV_AT_EPOCH": 89414, "BSTAR": 0.0065167846, "MEAN_MOTION_DOT": 0.00272351, "MEAN_MOTION_DDOT": 0}, "tle": {"line1": "1 34429U 93036RW  25344.50557869  .00272351  00000+0  65168-2 0  9993", "line2": "2 34429  73.9712 172.8672 0006787  16.6969  12.0165 15.40292779894148"}}, "geometry": {"type": "Point", "coordinates": [-18.570136557336394, 32.13690977062867]}}, {"type": "Feature", "properties": {"norad_id": 34430, "name": "COSMOS 2251 DEB", "group": "cosmos-2251-debris", "lat": 24.979522136313317, "lon": 118.95115627369219, "alt_km": 790.0922335957612, "timestamp": "2025-12-10T23:33:13.212350+00:00", "meta": {"OBJECT_NAME": "COSMOS 2251 DEB", "OBJECT_ID": "1993-036RX", "EPOCH": "2025-12-10T14:30:20.605824", "MEAN_MOTION": 14.39621855, "ECCENTRICITY": 0.00602761, "INCLINATION": 74.0523, "RA_OF_ASC_NODE": 307.3017, "ARG_OF_PERICENTER": 17.4561, "MEAN_ANOMALY": 342.8646, "EPHEMERIS_TYPE": 0, "CLASSIFICATION_TYPE": "U", "NORAD_CAT_ID": 34430, "ELEMENT_SET_NO": 999, "REV_AT_EPOCH": 87924, "BSTAR": 0.00084493153, "MEAN_MOTION_DOT": 2.672e-05, "MEAN_MOTION_DDOT": 0}, "tle": {"line1": "1 34430U 93036RX  25344.60440516  .00002672  00000+0  84493-3 0  9996", "line2": "2 34430  74.0523 307.3017 0060276  17.4561 342.8646 14.39621855879240"}}, "geometry": {"type": "Point", "coordinates": [118.95115627369219, 24.979522136313317]}}, {"type": "Feature", "properties": {"norad_id": 34431, "name": "COSMOS 2251 DEB", "group": "cosmos-2251-debris", "lat": 53.40336900737941, "lon": -24.229731856823555, "alt_km": 753.4449644026163, "timestamp": "2025-12-10T23:33:13.212360+00:00", "meta": {"OBJECT_NAME": "COSMOS 2251 DEB", "OBJECT_ID": "1993-036RY", "EPOCH": "2025-12-09T23:27:02.345472", "MEAN_MOTION": 14.28759324, "ECCENTRICITY": 0.0068412, "INCLINATION": 74.0746, "RA_OF_ASC_NODE": 180.2002, "ARG_OF_PERICENTER": 166.6572, "MEAN_ANOMALY": 193.6408, "EPHEMERIS_TYPE": 0, "CLASSIFICATION_TYPE": "U", "NORAD_CAT_ID": 34431, "ELEMENT_SET_NO": 999, "REV_AT_EPOCH": 87103, "BSTAR": 0.00077362486, "MEAN_MOTION_DOT": 1.973e-05, "MEAN_MOTION_DDOT": 0}, "tle": {"line1": "1 34431U 93036RY  25343.97711048  .00001973  00000+0  77362-3 0  9997", "line2": "2 34431  74.0746 180.2002 0068412 166.6572 193.6408 14.28759324871037"}}, "geometry": {"type": "Point", "coordinates": [-24.229731856823555, 53.40336900737941]}}]}